sat23105
1 23105U 94029A   20046.85443590  .00000171  00000-0  19545-4 0  9992
2 23105  81.9468 337.3312 0106683 182.3021 177.7714 14.75893710377581
